S-NET A                 
1 43188U 18014J   26176.70747477  .00005654  00000+0  29135-3 0  9995
2 43188  97.5375  81.6419 0008381 358.0843   2.0356 15.16755198460051
S-NET C                 
1 43189U 18014K   26176.72418220  .00005559  00000+0  28684-3 0  9991
2 43189  97.5389  81.7349 0009468 348.6118  11.4899 15.16709603458601
PAZ                     
1 43215U 18020A   26176.86748797  .00001746  00000+0  86333-4 0  9998
2 43215  97.4448 184.1297 0001705  86.9892 273.1538 15.19148870462320
GOES 17                 
1 43226U 18022A   26176.79248214 -.00000173  00000+0  00000+0 0  9999
2 43226   0.9588  85.5668 0000668  22.9670   1.1720  1.00272890 30512
LKW-4                   
1 43236U 18025A   26176.46851090  .00052613  00000+0  58119-3 0  9992
2 43236  97.6342 347.9947 0002272 250.5330 109.5683 15.62900315461325
ZHUHAI-1 OVS-02         
1 43440U 18040B   26176.89243382  .00008099  00000+0  32584-3 0  9999
2 43440  97.0386 193.6056 0002778 190.2625 169.8557 15.25133017454045
ZHUHAI-1 OHS-02         
1 43441U 18040C   26176.87262536  .00009402  00000+0  36774-3 0  9994
2 43441  97.0370 200.5353 0009136 186.8807 173.2308 15.25998677115605
GAOFEN-6                
1 43484U 18048A   26176.81301529  .00000286  00000+0  48573-4 0  9991
2 43484  98.0567 239.4730 0011702 138.2342 221.9762 14.76423510434667
LUOJIA-1 01             
1 43485U 18048B   26176.85301831  .00001789  00000+0  20403-3 0  9992
2 43485  97.8106 254.9017 0010583  92.7765 267.4663 14.87314844435503
PAKTES 1A               
1 43529U 18056A   26176.88205053  .00004485  00000+0  37242-3 0  9997
2 43529  98.1282 333.7402 0021324  79.2273 281.1347 14.99135177433226
PRSS-1                  
1 43530U 18056B   26176.83216142  .00001124  00000+0  14816-3 0  9994
2 43530  97.7819 244.4629 0001526  75.4090 284.7293 14.82001894429713
HAIYANG-1C              
1 43609U 18068A   26176.82628216  .00000027  00000+0  24988-4 0  9995
2 43609  98.5190 249.0097 0012070  71.2238 289.0255 14.34180854408326
SSTL S1-4               
1 43618U 18071A   26176.84940094  .00000806  00000+0  76357-4 0  9994
2 43618  97.5020  48.1026 0001725 114.8986 245.2415 14.96171526424230
HAIYANG-2B              
1 43655U 18081A   26176.86765440 -.00000298  00000+0 -24700-3 0  9999
2 43655  99.3287 185.4928 0000018 174.8587 185.2565 13.79306688386122
CFOSAT                  
1 43662U 18083A   26176.80420333  .00003615  00000+0  18930-3 0  9994
2 43662  97.3604 181.0806 0002371  85.6993 274.4511 15.16424098423743
TEN-KOH                 
1 43677U 18084G   26176.77867122  .00001768  00000+0  13633-3 0  9990
2 43677  98.0760   9.5052 0011331  89.8867 270.3655 15.02969282417458
DIWATA-2B               
1 43678U 18084H   26176.83919052  .00002550  00000+0  20738-3 0  9992
2 43678  98.1205  13.4248 0012987 142.9555 217.2566 15.00488201417511
STARS-AO                
1 43679U 18084J   26176.58202700  .00006781  00000+0  34550-3 0  9997
2 43679  98.0502  31.0710 0003395 119.5966 240.5605 15.17138266418740
AUTCUBE 2               
1 43681U 18084K   26176.51305882  .00004364  00000+0  27164-3 0  9996
2 43681  98.0706  23.1289 0009389  23.9985 336.1679 15.10142893418185
METOP-C                 
1 43689U 18087A   26176.79607859  .00000080  00000+0  56155-4 0  9990
2 43689  98.6641 236.2423 0002026 118.4923 241.6459 14.21514219396050
ES'HAIL 2               
1 43700U 18090A   26176.67268748  .00000155  00000+0  00000+0 0  9991
2 43700   0.0185 341.0996 0002207 148.5722  52.1049  1.00274106 27766
MOHAMMED VI-B           
1 43717U 18095A   26176.84771198  .00000951  00000+0  14190-3 0  9994
2 43717  97.9555 249.0542 0001506  97.9724 262.1658 14.77059113409461
HYSIS                   
1 43719U 18096A   26176.80572618  .00001080  00000+0  15450-3 0  9993
2 43719  97.9839 243.4864 0001837  94.3239 265.8182 14.78631569408690
COSMOS 2530 (RODNIK-S *)
1 43751U 18097A   26176.82895596  .00000031  00000+0  14994-3 0  9992
2 43751  82.5137 216.9175 0019843  21.3111 338.8791 12.42881217343367
COSMOS 2531 (RODNIK-S *)
1 43752U 18097B   26176.85101899  .00000055  00000+0  32716-3 0  9990
2 43752  82.5182 217.9653 0017428  40.3474 319.8895 12.42912717343386
COSMOS 2532 (RODNIK-S *)
1 43753U 18097C   26176.87931263  .00000013  00000+0  20226-4 0  9997
2 43753  82.5127 216.7297 0018836  42.1091 318.1432 12.42909825343358
MINXSS-2                
1 43758U 18099A   26176.17654959  .00044561  00000+0  86792-3 0  9996
2 43758  97.4537 252.6971 0007304 224.7888 135.2772 15.47398499415364
SIRION PATHFINDER-2     
1 43759U 18099B   26176.70438003  .00005354  00000+0  29320-3 0  9997
2 43759  97.4252 225.5592 0007067 268.5971  91.4452 15.14618817413912
AISTECHSAT 2            
1 43768U 18099L   26176.67254979  .00006609  00000+0  35210-3 0  9990
2 43768  97.4292 224.5206 0003012 264.4362  95.6527 15.15527965413566
FOX-1CLIFF (AO-95)      
1 43770U 18099N   26176.66330514  .00013967  00000+0  53097-3 0  9990
2 43770  97.4386 236.8787 0007199 324.2566  35.8190 15.26877140414517
