OBJECT_NAME,OBJECT_ID,EPOCH,MEAN_MOTION,ECCENTRICITY,INCLINATION,RA_OF_ASC_NODE,ARG_OF_PERICENTER,MEAN_ANOMALY,EPHEMERIS_TYPE,CLASSIFICATION_TYPE,NORAD_CAT_ID,ELEMENT_SET_NO,REV_AT_EPOCH,BSTAR,MEAN_MOTION_DOT,MEAN_MOTION_DDOT
S-NET A,2018-014J,2026-06-25T16:58:45.820128,15.16755198,.0008381,97.5375,81.6419,358.0843,2.0356,0,U,43188,999,46005,.29135E-3,.5654E-4,0
S-NET C,2018-014K,2026-06-25T17:22:49.342080,15.16709603,.0009468,97.5389,81.7349,348.6118,11.4899,0,U,43189,999,45860,.28684E-3,.5559E-4,0
PAZ,2018-020A,2026-06-25T20:49:10.960608,15.19148870,.0001705,97.4448,184.1297,86.9892,273.1538,0,U,43215,999,46232,.86333E-4,.1746E-4,0
GOES 17,2018-022A,2026-06-25T19:01:10.456896,1.00272890,.0000668,0.9588,85.5668,22.9670,1.1720,0,U,43226,999,3051,0,-.173E-5,0
LKW-4,2018-025A,2026-06-25T11:14:39.341760,15.62900315,.0002272,97.6342,347.9947,250.5330,109.5683,0,U,43236,999,46132,.58119E-3,.52613E-3,0
ZHUHAI-1 OVS-02,2018-040B,2026-06-25T21:25:06.282048,15.25133017,.0002778,97.0386,193.6056,190.2625,169.8557,0,U,43440,999,45404,.32584E-3,.8099E-4,0
ZHUHAI-1 OHS-02,2018-040C,2026-06-25T20:56:34.831104,15.25998677,.0009136,97.0370,200.5353,186.8807,173.2308,0,U,43441,999,11560,.36774E-3,.9402E-4,0
GAOFEN-6,2018-048A,2026-06-25T19:30:44.521056,14.76423510,.0011702,98.0567,239.4730,138.2342,221.9762,0,U,43484,999,43466,.48573E-4,.286E-5,0
LUOJIA-1 01,2018-048B,2026-06-25T20:28:20.781984,14.87314844,.0010583,97.8106,254.9017,92.7765,267.4663,0,U,43485,999,43550,.20403E-3,.1789E-4,0
PAKTES 1A,2018-056A,2026-06-25T21:10:09.165792,14.99135177,.0021324,98.1282,333.7402,79.2273,281.1347,0,U,43529,999,43322,.37242E-3,.4485E-4,0
PRSS-1,2018-056B,2026-06-25T19:58:18.746688,14.82001894,.0001526,97.7819,244.4629,75.4090,284.7293,0,U,43530,999,42971,.14816E-3,.1124E-4,0
HAIYANG-1C,2018-068A,2026-06-25T19:49:50.778624,14.34180854,.001207,98.5190,249.0097,71.2238,289.0255,0,U,43609,999,40832,.24988E-4,.27E-6,0
SSTL S1-4,2018-071A,2026-06-25T20:23:08.241216,14.96171526,.0001725,97.5020,48.1026,114.8986,245.2415,0,U,43618,999,42423,.76357E-4,.806E-5,0
HAIYANG-2B,2018-081A,2026-06-25T20:49:25.340160,13.79306688,.0000018,99.3287,185.4928,174.8587,185.2565,0,U,43655,999,38612,-.247E-3,-.298E-5,0
CFOSAT,2018-083A,2026-06-25T19:18:03.167712,15.16424098,.0002371,97.3604,181.0806,85.6993,274.4511,0,U,43662,999,42374,.1893E-3,.3615E-4,0
TEN-KOH,2018-084G,2026-06-25T18:41:17.193408,15.02969282,.0011331,98.0760,9.5052,89.8867,270.3655,0,U,43677,999,41745,.13633E-3,.1768E-4,0
DIWATA-2B,2018-084H,2026-06-25T20:08:26.060928,15.00488201,.0012987,98.1205,13.4248,142.9555,217.2566,0,U,43678,999,41751,.20738E-3,.255E-4,0
STARS-AO,2018-084J,2026-06-25T13:58:07.132800,15.17138266,.0003395,98.0502,31.0710,119.5966,240.5605,0,U,43679,999,41874,.3455E-3,.6781E-4,0
AUTCUBE 2,2018-084K,2026-06-25T12:18:48.282048,15.10142893,.0009389,98.0706,23.1289,23.9985,336.1679,0,U,43681,999,41818,.27164E-3,.4364E-4,0
METOP-C,2018-087A,2026-06-25T19:06:21.190176,14.21514219,.0002026,98.6641,236.2423,118.4923,241.6459,0,U,43689,999,39605,.56155E-4,.8E-6,0
ES'HAIL 2,2018-090A,2026-06-25T16:08:40.198272,1.00274106,.0002207,0.0185,341.0996,148.5722,52.1049,0,U,43700,999,2776,0,.155E-5,0
MOHAMMED VI-B,2018-095A,2026-06-25T20:20:42.315072,14.77059113,.0001506,97.9555,249.0542,97.9724,262.1658,0,U,43717,999,40946,.1419E-3,.951E-5,0
HYSIS,2018-096A,2026-06-25T19:20:14.741952,14.78631569,.0001837,97.9839,243.4864,94.3239,265.8182,0,U,43719,999,40869,.1545E-3,.108E-4,0
COSMOS 2530 (RODNIK-S 16),2018-097A,2026-06-25T19:53:41.794944,12.42881217,.0019843,82.5137,216.9175,21.3111,338.8791,0,U,43751,999,34336,.14994E-3,.31E-6,0
COSMOS 2531 (RODNIK-S 17),2018-097B,2026-06-25T20:25:28.040736,12.42912717,.0017428,82.5182,217.9653,40.3474,319.8895,0,U,43752,999,34338,.32716E-3,.55E-6,0
COSMOS 2532 (RODNIK-S 18),2018-097C,2026-06-25T21:06:12.611232,12.42909825,.0018836,82.5127,216.7297,42.1091,318.1432,0,U,43753,999,34335,.20226E-4,.13E-6,0
MINXSS-2,2018-099A,2026-06-25T04:14:13.884576,15.47398499,.00073046,97.4537,252.6971,224.7888,135.2772,0,U,43758,999,41536,.8679151E-3,.44561E-3,0
SIRION PATHFINDER-2,2018-099B,2026-06-25T16:54:18.434592,15.14618817,.0007067,97.4252,225.5592,268.5971,91.4452,0,U,43759,999,41391,.2932E-3,.5354E-4,0
AISTECHSAT 2,2018-099L,2026-06-25T16:08:28.301856,15.15527965,.0003012,97.4292,224.5206,264.4362,95.6527,0,U,43768,999,41356,.3521E-3,.6609E-4,0
FOX-1CLIFF (AO-95),2018-099N,2026-06-25T15:55:09.564096,15.26877140,.0007199,97.4386,236.8787,324.2566,35.8190,0,U,43770,999,41451,.53097E-3,.13967E-3,0
